{
    "CCSDS_OMM_VERS": "3.0",
    "COMMENT": "GENERATED VIA SPACE-TRACK.ORG API",
    "CREATION_DATE": "2025-05-22T17:14:14",
    "ORIGINATOR": "18 SPCS",
    "OBJECT_NAME": "GALILEO 21 (2C7)",
    "OBJECT_ID": "2017-079C",
    "CENTER_NAME": "EARTH",
    "REF_FRAME": "TEME",
    "TIME_SYSTEM": "UTC",
    "MEAN_ELEMENT_THEORY": "SGP4",
    "EPOCH": "2025-05-22T06:39:11.233440",
    "MEAN_MOTION": "1.70474763",
    "ECCENTRICITY": "0.00025690",
    "INCLINATION": "55.1998",
    "RA_OF_ASC_NODE": "232.2613",
    "ARG_OF_PERICENTER": "288.4947",
    "MEAN_ANOMALY": "71.5170",
    "EPHEMERIS_TYPE": "0",
    "CLASSIFICATION_TYPE": "U",
    "NORAD_CAT_ID": "43057",
    "ELEMENT_SET_NO": "999",
    "REV_AT_EPOCH": "4632",
    "BSTAR": "0.00000000000000",
    "MEAN_MOTION_DOT": "0.00000004",
    "MEAN_MOTION_DDOT": "0.0000000000000",
    "SEMIMAJOR_AXIS": "29600.232",
    "PERIOD": "844.700",
    "APOAPSIS": "23229.701",
    "PERIAPSIS": "23214.492",
    "OBJECT_TYPE": "PAYLOAD",
    "RCS_SIZE": "LARGE",
    "COUNTRY_CODE": "ESA",
    "LAUNCH_DATE": "2017-12-12",
    "SITE": "FRGUI",
    "DECAY_DATE": null,
    "FILE": "4736220",
    "GP_ID": "288144403",
    "TLE_LINE0": "0 GALILEO 21 (2C7)",
    "TLE_LINE1": "1 43057U 17079C   25142.27721335  .00000004  00000-0  00000-0 0  9991",
    "TLE_LINE2": "2 43057  55.1998 232.2613 0002569 288.4947  71.5170  1.70474763 46326"
}